{"type":"FeatureCollection","crs":{"type":"name","properties":{"name":"urn:ogc:def:crs:OGC:1.3:CRS84"}},"features":[{"type":"Feature","geometry":{"type":"Point","coordinates":[-103.7592,19.945524]},"properties":{"name":"Tapalpa Aventura Y Aprendizaje S de RL de CV","place_name":"Tapalpa Aventura Y Aprendizaje S de RL de CV","id":"404295"}},{"type":"Feature","geometry":{"type":"Point","coordinates":[-68.53639,-31.5375]},"properties":{"name":"Neverland Patio Alvear","place_name":"Neverland Patio Alvear","id":"403654"}},{"type":"Feature","geometry":{"type":"Point","coordinates":[-82.819206,27.976911]},"properties":{"name":"Clearwater Marine Aquarium","place_name":"Clearwater Marine Aquarium","id":"363813"}},{"type":"Feature","geometry":{"type":"Point","coordinates":[-87.65649,41.89466]},"properties":{"name":"iFLY Indoor Skydiving - Chicago","place_name":"iFLY Indoor Skydiving - Chicago","id":"409133"}},{"type":"Feature","geometry":{"type":"Point","coordinates":[-3.581946,40.607173]},"properties":{"name":"GRUPO FAMAI S.L.","place_name":"GRUPO FAMAI S.L.","id":"394698"}},{"type":"Feature","geometry":{"type":"Point","coordinates":[50.209448,26.353961]},"properties":{"name":"Dana Bay Tourism Company","place_name":"Dana Bay Tourism Company","id":"383285"}},{"type":"Feature","geometry":{"type":"Point","coordinates":[39.218559,21.507473]},"properties":{"name":"Sparky's Andalus - Jeddah","place_name":"Sparky's Andalus - Jeddah","id":"405750"}},{"type":"Feature","geometry":{"type":"Point","coordinates":[-84.331087,34.139769]},"properties":{"name":"Esparza HQ | Destinations + Experiences","place_name":"Esparza HQ | Destinations + Experiences","id":"420445"}},{"type":"Feature","geometry":{"type":"Point","coordinates":[-89.790271,43.604253]},"properties":{"name":"Noah's Ark Waterpark","place_name":"Noah's Ark Waterpark","id":"8150"}},{"type":"Feature","geometry":{"type":"Point","coordinates":[-90.13,32.15]},"properties":{"name":"Amusement Ride Imports, LLC","place_name":"Amusement Ride Imports, LLC","id":"418951"}},{"type":"Feature","geometry":{"type":"Point","coordinates":[-118.57578,34.453081]},"properties":{"name":"Gantom Lighting & Controls","place_name":"Gantom Lighting & Controls","id":"358236"}},{"type":"Feature","geometry":{"type":"Point","coordinates":[-78.479271,-0.176381]},"properties":{"name":"ENDIFA","place_name":"ENDIFA","id":"100400"}},{"type":"Feature","geometry":{"type":"Point","coordinates":[-88.1257,41.803204]},"properties":{"name":"iFLY Indoor Skydiving - Naperville","place_name":"iFLY Indoor Skydiving - Naperville","id":"409135"}},{"type":"Feature","geometry":{"type":"Point","coordinates":[-117.603403,34.046545]},"properties":{"name":"Sureshot Redemption","place_name":"Sureshot Redemption","id":"76850"}},{"type":"Feature","geometry":{"type":"Point","coordinates":[-97.26183,49.85868]},"properties":{"name":"Gould Manufacturing","place_name":"Gould Manufacturing","id":"1200"}},{"type":"Feature","geometry":{"type":"Point","coordinates":[-74.065156,40.816757]},"properties":{"name":"Betson Enterprises","place_name":"Betson Enterprises","id":"360"}},{"type":"Feature","geometry":{"type":"Point","coordinates":[39.214397,21.511621]},"properties":{"name":"Sparky's Roshan Mall","place_name":"Sparky's Roshan Mall","id":"405744"}},{"type":"Feature","geometry":{"type":"Point","coordinates":[-76.640931,39.990531]},"properties":{"name":"Laser Alleys","place_name":"Laser Alleys","id":"399259"}},{"type":"Feature","geometry":{"type":"Point","coordinates":[12.635068,45.505954]},"properties":{"name":"Sea Life Lido di Jesolo","place_name":"Sea Life Lido di Jesolo","id":"361538"}},{"type":"Feature","geometry":{"type":"Point","coordinates":[3.020523,50.634081]},"properties":{"name":"KYLII KIDS","place_name":"KYLII KIDS","id":"421819"}},{"type":"Feature","geometry":{"type":"Point","coordinates":[-83.049872,42.329252]},"properties":{"name":"Star Entertainment Ventures LLC","place_name":"Star Entertainment Ventures LLC","id":"391840"}},{"type":"Feature","geometry":{"type":"Point","coordinates":[144.983367,-37.855354]},"properties":{"name":"Melbourne's Luna Park","place_name":"Melbourne's Luna Park","id":"156950"}},{"type":"Feature","geometry":{"type":"Point","coordinates":[5.411412,51.500537]},"properties":{"name":"J&R Best Import BV","place_name":"J&R Best Import BV","id":"417532"}},{"type":"Feature","geometry":{"type":"Point","coordinates":[-81.230153,32.109071]},"properties":{"name":"South Georgia Property Management, LLC","place_name":"South Georgia Property Management, LLC","id":"363927"}},{"type":"Feature","geometry":{"type":"Point","coordinates":[4.7510211,50.7768653]},"properties":{"name":"FX3 Sprl","place_name":"FX3 Sprl","id":"400470"}},{"type":"Feature","geometry":{"type":"Point","coordinates":[-82.413277,27.339476]},"properties":{"name":"Outdoor By Design","place_name":"Outdoor By Design","id":"422835"}},{"type":"Feature","geometry":{"type":"Point","coordinates":[-80.162503,26.207263]},"properties":{"name":"Hoffman Mint","place_name":"Hoffman Mint","id":"134870"}},{"type":"Feature","geometry":{"type":"Point","coordinates":[44.11667,23.71667]},"properties":{"name":"Fun Studio Manar Mall","place_name":"Fun Studio Manar Mall","id":"405758"}},{"type":"Feature","geometry":{"type":"Point","coordinates":[-84.187681,39.837625]},"properties":{"name":"Scene75 Entertainment LLC","place_name":"Scene75 Entertainment LLC","id":"420936"}},{"type":"Feature","geometry":{"type":"Point","coordinates":[28.792148,41.062992]},"properties":{"name":"Akuatronic Su Ve Isik Teknolojileri AS","place_name":"Akuatronic Su Ve Isik Teknolojileri AS","id":"411725"}},{"type":"Feature","geometry":{"type":"Point","coordinates":[144.459604,-38.184069]},"properties":{"name":"Adventure Park, Geelong","place_name":"Adventure Park, Geelong","id":"301907"}},{"type":"Feature","geometry":{"type":"Point","coordinates":[12.288798,47.921638]},"properties":{"name":"Emotion Media Factory Laserland GmbH","place_name":"Emotion Media Factory Laserland GmbH","id":"130910"}},{"type":"Feature","geometry":{"type":"Point","coordinates":[-114.052448,50.95007]},"properties":{"name":"TommyK Play Inc.","place_name":"TommyK Play Inc.","id":"363024"}},{"type":"Feature","geometry":{"type":"Point","coordinates":[-87.614006,41.867603]},"properties":{"name":"John G. Shedd Aquarium","place_name":"John G. Shedd Aquarium","id":"320116"}},{"type":"Feature","geometry":{"type":"Point","coordinates":[14.971879,60.757827]},"properties":{"name":"Leksand Sommarland AB","place_name":"Leksand Sommarland AB","id":"341263"}},{"type":"Feature","geometry":{"type":"Point","coordinates":[13.457177,52.473456]},"properties":{"name":"Bookingkit GmbH","place_name":"Bookingkit GmbH","id":"408363"}},{"type":"Feature","geometry":{"type":"Point","coordinates":[-105.762066544389,39.8876680681334]},"properties":{"name":"Winter Park Resort","place_name":"Winter Park Resort","id":"418907"}},{"type":"Feature","geometry":{"type":"Point","coordinates":[-118.34179,34.14974]},"properties":{"name":"Warner Bros. Consumer Products","place_name":"Warner Bros. Consumer Products","id":"381653"}},{"type":"Feature","geometry":{"type":"Point","coordinates":[-84.9235,33.52471]},"properties":{"name":"American Adventure Park System AAPS","place_name":"American Adventure Park System AAPS","id":"380921"}},{"type":"Feature","geometry":{"type":"Point","coordinates":[-80.66,41.24]},"properties":{"name":"Governor Insurance Agency, Inc.","place_name":"Governor Insurance Agency, Inc.","id":"373318"}},{"type":"Feature","geometry":{"type":"Point","coordinates":[-118.38798,34.219738]},"properties":{"name":"GP Color Imaging Group","place_name":"GP Color Imaging Group","id":"378270"}},{"type":"Feature","geometry":{"type":"Point","coordinates":[16.370837,48.207019]},"properties":{"name":"Dynamic Motion Rides GmbH","place_name":"Dynamic Motion Rides GmbH","id":"359824"}},{"type":"Feature","geometry":{"type":"Point","coordinates":[-118.37219,34.10499]},"properties":{"name":"Franz Harary Productions","place_name":"Franz Harary Productions","id":"304134"}},{"type":"Feature","geometry":{"type":"Point","coordinates":[-103.31045,20.722531]},"properties":{"name":"Zoologico Guadalajara","place_name":"Zoologico Guadalajara","id":"157230"}},{"type":"Feature","geometry":{"type":"Point","coordinates":[-75.345641,41.052169]},"properties":{"name":"Camelback Lodge & Aquatopia Indoor Waterpark","place_name":"Camelback Lodge & Aquatopia Indoor Waterpark","id":"389565"}},{"type":"Feature","geometry":{"type":"Point","coordinates":[12.513512,56.000482]},"properties":{"name":"Offpiste ApS","place_name":"Offpiste ApS","id":"345717"}},{"type":"Feature","geometry":{"type":"Point","coordinates":[-72.669744,41.880768]},"properties":{"name":"Evelyn Chionilos Design","place_name":"Evelyn Chionilos Design","id":"419930"}},{"type":"Feature","geometry":{"type":"Point","coordinates":[-122.499318,49.108548]},"properties":{"name":"FEC Builders","place_name":"FEC Builders","id":"396010"}},{"type":"Feature","geometry":{"type":"Point","coordinates":[-73.723069,42.79994]},"properties":{"name":"Aquatic Development Group, Inc.","place_name":"Aquatic Development Group, Inc.","id":"12730"}},{"type":"Feature","geometry":{"type":"Point","coordinates":[-81.5769596,28.3540543]},"properties":{"name":"WDW Blizzard Beach Waterpark","place_name":"WDW Blizzard Beach Waterpark","id":"349520"}},{"type":"Feature","geometry":{"type":"Point","coordinates":[-96.711299,32.96281]},"properties":{"name":"Timtan LLC dba SAVE Electronics","place_name":"Timtan LLC dba SAVE Electronics","id":"398144"}},{"type":"Feature","geometry":{"type":"Point","coordinates":[-117.84,33.65]},"properties":{"name":"Boomers Santa Maria","place_name":"Boomers Santa Maria","id":"150830"}},{"type":"Feature","geometry":{"type":"Point","coordinates":[11.96253,57.703881]},"properties":{"name":"Visit Group","place_name":"Visit Group","id":"418548"}},{"type":"Feature","geometry":{"type":"Point","coordinates":[-74.0371,40.09067]},"properties":{"name":"Jenkinson's Boardwalk","place_name":"Jenkinson's Boardwalk","id":"4360"}},{"type":"Feature","geometry":{"type":"Point","coordinates":[103.734887,1.331878]},"properties":{"name":"Science Centre Singapore","place_name":"Science Centre Singapore","id":"62190"}},{"type":"Feature","geometry":{"type":"Point","coordinates":[-118.25967,34.05429]},"properties":{"name":"Sky Zone Franchise Group","place_name":"Sky Zone Franchise Group","id":"363884"}},{"type":"Feature","geometry":{"type":"Point","coordinates":[25.32611,57.89694]},"properties":{"name":"SIA RUJIENAS SALDEJUMS","place_name":"SIA RUJIENAS SALDEJUMS","id":"400488"}},{"type":"Feature","geometry":{"type":"Point","coordinates":[-85.538969,42.211406]},"properties":{"name":"Junglejoes","place_name":"Junglejoes","id":"369398"}},{"type":"Feature","geometry":{"type":"Point","coordinates":[-81.441807,28.42852]},"properties":{"name":"Rosen College of Hospitality Management, University of Central Florida","place_name":"Rosen College of Hospitality Management, University of Central Florida","id":"123440"}},{"type":"Feature","geometry":{"type":"Point","coordinates":[0.502324,51.590962]},"properties":{"name":"PMS International Group PLC","place_name":"PMS International Group PLC","id":"345854"}},{"type":"Feature","geometry":{"type":"Point","coordinates":[-84.521758,39.307766]},"properties":{"name":"Cincinnati Specialty Underwriters","place_name":"Cincinnati Specialty Underwriters","id":"420887"}},{"type":"Feature","geometry":{"type":"Point","coordinates":[126.66258,45.75808]},"properties":{"name":"Harbin Huahong Group","place_name":"Harbin Huahong Group","id":"417902"}},{"type":"Feature","geometry":{"type":"Point","coordinates":[54.373998,24.502801]},"properties":{"name":"Fun City Abu Dhabi Mall","place_name":"Fun City Abu Dhabi Mall","id":"388426"}},{"type":"Feature","geometry":{"type":"Point","coordinates":[-81.482404,28.516166]},"properties":{"name":"Falcon's Treehouse, LLC","place_name":"Falcon's Treehouse, LLC","id":"172470"}},{"type":"Feature","geometry":{"type":"Point","coordinates":[6.444276,52.091037]},"properties":{"name":"Van Veen Design","place_name":"Van Veen Design","id":"132040"}},{"type":"Feature","geometry":{"type":"Point","coordinates":[-83.540271,35.857725]},"properties":{"name":"ProAiir FX Makeup / ShowOffs Body Art","place_name":"ProAiir FX Makeup / ShowOffs Body Art","id":"371584"}},{"type":"Feature","geometry":{"type":"Point","coordinates":[-82.561952,40.772128]},"properties":{"name":"Adena Corporation","place_name":"Adena Corporation","id":"339630"}},{"type":"Feature","geometry":{"type":"Point","coordinates":[-77.596343,42.908899]},"properties":{"name":"Bears Playgrounds","place_name":"Bears Playgrounds","id":"360083"}},{"type":"Feature","geometry":{"type":"Point","coordinates":[9.179932,47.656907]},"properties":{"name":"Sea Life Konstanz","place_name":"Sea Life Konstanz","id":"348309"}},{"type":"Feature","geometry":{"type":"Point","coordinates":[153.038,-27.4432]},"properties":{"name":"Lightweave","place_name":"Lightweave","id":"420526"}},{"type":"Feature","geometry":{"type":"Point","coordinates":[-79.646919,43.490521]},"properties":{"name":"OpenAire, Inc.","place_name":"OpenAire, Inc.","id":"321187"}},{"type":"Feature","geometry":{"type":"Point","coordinates":[-117.252209,32.770147]},"properties":{"name":"Belmont Park","place_name":"Belmont Park","id":"74030"}},{"type":"Feature","geometry":{"type":"Point","coordinates":[-97.490093,35.294298]},"properties":{"name":"HeyDay Entertainment","place_name":"HeyDay Entertainment","id":"336947"}},{"type":"Feature","geometry":{"type":"Point","coordinates":[-73.486033,40.808444]},"properties":{"name":"Sterlingrisk Programs","place_name":"Sterlingrisk Programs","id":"115480"}},{"type":"Feature","geometry":{"type":"Point","coordinates":[-76.657022,40.287926]},"properties":{"name":"Hersheypark","place_name":"Hersheypark","id":"4280"}},{"type":"Feature","geometry":{"type":"Point","coordinates":[-77.1391,-12.0523]},"properties":{"name":"Happyland Bellavista","place_name":"Happyland Bellavista","id":"397125"}},{"type":"Feature","geometry":{"type":"Point","coordinates":[120.65608,27.99913]},"properties":{"name":"Wenzhou J&Bell Amusement Equipment Co., Ltd","place_name":"Wenzhou J&Bell Amusement Equipment Co., Ltd","id":"417715"}},{"type":"Feature","geometry":{"type":"Point","coordinates":[10.51,44.77]},"properties":{"name":"Ferretti International SRLS","place_name":"Ferretti International SRLS","id":"347457"}},{"type":"Feature","geometry":{"type":"Point","coordinates":[46.775041,24.72382]},"properties":{"name":"Sparky's Carrefour Khuris","place_name":"Sparky's Carrefour Khuris","id":"405714"}},{"type":"Feature","geometry":{"type":"Point","coordinates":[-97.069489,32.751404]},"properties":{"name":"Bowling Proprietors' Association of America - BPAA","place_name":"Bowling Proprietors' Association of America - BPAA","id":"174350"}},{"type":"Feature","geometry":{"type":"Point","coordinates":[-97.944674,29.812179]},"properties":{"name":"Fountain People","place_name":"Fountain People","id":"358700"}},{"type":"Feature","geometry":{"type":"Point","coordinates":[11.45,45.3]},"properties":{"name":"MammaMia Rides srl","place_name":"MammaMia Rides srl","id":"364045"}},{"type":"Feature","geometry":{"type":"Point","coordinates":[6.877254,52.222969]},"properties":{"name":"Colour 4 Cotton Creations","place_name":"Colour 4 Cotton Creations","id":"418432"}},{"type":"Feature","geometry":{"type":"Point","coordinates":[-74.66752,41.66334]},"properties":{"name":"The Kartrite Resort & Indoor Waterpark","place_name":"The Kartrite Resort & Indoor Waterpark","id":"420946"}},{"type":"Feature","geometry":{"type":"Point","coordinates":[-111.964483,33.383127]},"properties":{"name":"Sea Life Arizona","place_name":"Sea Life Arizona","id":"395508"}},{"type":"Feature","geometry":{"type":"Point","coordinates":[24.821861,60.180616]},"properties":{"name":"Valo Motion","place_name":"Valo Motion","id":"408698"}},{"type":"Feature","geometry":{"type":"Point","coordinates":[8.447541,49.318834]},"properties":{"name":"Sea Life Speyer","place_name":"Sea Life Speyer","id":"348315"}},{"type":"Feature","geometry":{"type":"Point","coordinates":[2.12389,48.62444]},"properties":{"name":"Beresford SAS","place_name":"Beresford SAS","id":"387826"}},{"type":"Feature","geometry":{"type":"Point","coordinates":[-117.221515,32.900471]},"properties":{"name":"Backyard X-Scapes","place_name":"Backyard X-Scapes","id":"352876"}},{"type":"Feature","geometry":{"type":"Point","coordinates":[-114.355981,51.085782]},"properties":{"name":"Calaway Park","place_name":"Calaway Park","id":"3610"}},{"type":"Feature","geometry":{"type":"Point","coordinates":[-121.975249,49.075104]},"properties":{"name":"Cultus Lake Waterpark","place_name":"Cultus Lake Waterpark","id":"364745"}},{"type":"Feature","geometry":{"type":"Point","coordinates":[-73.979003,40.573379]},"properties":{"name":"Deno's Wonder Wheel Amusement Park","place_name":"Deno's Wonder Wheel Amusement Park","id":"22630"}},{"type":"Feature","geometry":{"type":"Point","coordinates":[46.71,24.65]},"properties":{"name":"Osool Entertainment Company","place_name":"Osool Entertainment Company","id":"406033"}},{"type":"Feature","geometry":{"type":"Point","coordinates":[114.15861,22.27833]},"properties":{"name":"Play Concept Limited","place_name":"Play Concept Limited","id":"362291"}},{"type":"Feature","geometry":{"type":"Point","coordinates":[-73.9808,40.7648]},"properties":{"name":"DEK Leadership","place_name":"DEK Leadership","id":"399567"}},{"type":"Feature","geometry":{"type":"Point","coordinates":[8.7,46.03]},"properties":{"name":"Wonderwood","place_name":"Wonderwood","id":"421939"}},{"type":"Feature","geometry":{"type":"Point","coordinates":[-117.400831,33.94941]},"properties":{"name":"Law Offices of Dwayne S. Beck & Associates, APC","place_name":"Law Offices of Dwayne S. Beck & Associates, APC","id":"172970"}},{"type":"Feature","geometry":{"type":"Point","coordinates":[-96.894569,32.874611]},"properties":{"name":"Dave & Buster's - Dallas","place_name":"Dave & Buster's - Dallas","id":"355428"}},{"type":"Feature","geometry":{"type":"Point","coordinates":[-82.518216,35.555334]},"properties":{"name":"Asheville's Fun Depot","place_name":"Asheville's Fun Depot","id":"312996"}},{"type":"Feature","geometry":{"type":"Point","coordinates":[-85.61661,44.76262]},"properties":{"name":"Big Dipper Dough Co. Inc","place_name":"Big Dipper Dough Co. Inc","id":"421578"}},{"type":"Feature","geometry":{"type":"Point","coordinates":[12.450917,41.633085]},"properties":{"name":"Zoomarine Italia Spa","place_name":"Zoomarine Italia Spa","id":"393211"}},{"type":"Feature","geometry":{"type":"Point","coordinates":[-76.240699,40.292228]},"properties":{"name":"Amusement Lubrication Specialties","place_name":"Amusement Lubrication Specialties","id":"331294"}},{"type":"Feature","geometry":{"type":"Point","coordinates":[-54.5763,-25.5209]},"properties":{"name":"Foz Tropicana Parque Das Aves","place_name":"Foz Tropicana Parque Das Aves","id":"394607"}},{"type":"Feature","geometry":{"type":"Point","coordinates":[9.072753,59.447276]},"properties":{"name":"Bo Sommarland","place_name":"Bo Sommarland","id":"20840"}},{"type":"Feature","geometry":{"type":"Point","coordinates":[-77.863101,34.207437]},"properties":{"name":"Jungle Rapids/Wrightsville Farms Management Group, Inc.","place_name":"Jungle Rapids/Wrightsville Farms Management Group, Inc.","id":"48210"}},{"type":"Feature","geometry":{"type":"Point","coordinates":[30.36546,50.456261]},"properties":{"name":"KEC IGROLAND","place_name":"KEC IGROLAND","id":"377903"}},{"type":"Feature","geometry":{"type":"Point","coordinates":[-100.93167,29.32417]},"properties":{"name":"Happyland La Plaza","place_name":"Happyland La Plaza","id":"396948"}},{"type":"Feature","geometry":{"type":"Point","coordinates":[120.68836,28.15464]},"properties":{"name":"Kiddi Amusement Co.,Ltd.","place_name":"Kiddi Amusement Co.,Ltd.","id":"417947"}},{"type":"Feature","geometry":{"type":"Point","coordinates":[-121.31628,44.02217]},"properties":{"name":"Amuze Products II Inc. DBA AmuzeProducts","place_name":"Amuze Products II Inc. DBA AmuzeProducts","id":"396462"}},{"type":"Feature","geometry":{"type":"Point","coordinates":[7.192479,50.673163]},"properties":{"name":"Sea Life Königswinter","place_name":"Sea Life Königswinter","id":"348305"}},{"type":"Feature","geometry":{"type":"Point","coordinates":[0.10806,49.49417]},"properties":{"name":"Gulli Parc Le Havre","place_name":"Gulli Parc Le Havre","id":"397370"}},{"type":"Feature","geometry":{"type":"Point","coordinates":[-2.81,42.8]},"properties":{"name":"Billares Sam, S.A.","place_name":"Billares Sam, S.A.","id":"338015"}},{"type":"Feature","geometry":{"type":"Point","coordinates":[-96.934217,32.950524]},"properties":{"name":"Tidel","place_name":"Tidel","id":"345798"}},{"type":"Feature","geometry":{"type":"Point","coordinates":[4.37789,51.083413]},"properties":{"name":"FACE Bvba","place_name":"FACE Bvba","id":"396610"}},{"type":"Feature","geometry":{"type":"Point","coordinates":[-58.175,-26.18333]},"properties":{"name":"Playland Las Toscas","place_name":"Playland Las Toscas","id":"403785"}},{"type":"Feature","geometry":{"type":"Point","coordinates":[-1.128082,53.002716]},"properties":{"name":"Mellors Group LTD","place_name":"Mellors Group LTD","id":"394095"}},{"type":"Feature","geometry":{"type":"Point","coordinates":[-76.907305,-12.020153]},"properties":{"name":"Aquapark Peru","place_name":"Aquapark Peru","id":"420513"}},{"type":"Feature","geometry":{"type":"Point","coordinates":[-73.826499,41.10135]},"properties":{"name":"Historic Hudson Valley","place_name":"Historic Hudson Valley","id":"414323"}},{"type":"Feature","geometry":{"type":"Point","coordinates":[0.600959,41.665593]},"properties":{"name":"Ilertren SL","place_name":"Ilertren SL","id":"366062"}},{"type":"Feature","geometry":{"type":"Point","coordinates":[2.35806,48.81]},"properties":{"name":"Tap Ball 2000","place_name":"Tap Ball 2000","id":"372847"}},{"type":"Feature","geometry":{"type":"Point","coordinates":[-118.355551,34.210618]},"properties":{"name":"Dapper Cadaver","place_name":"Dapper Cadaver","id":"392697"}},{"type":"Feature","geometry":{"type":"Point","coordinates":[-83.128485,40.071646]},"properties":{"name":"Scene75 Columbus Entertainment Center LLC","place_name":"Scene75 Columbus Entertainment Center LLC","id":"420939"}},{"type":"Feature","geometry":{"type":"Point","coordinates":[-81.296137,28.45281]},"properties":{"name":"Price Chopper Wristbands","place_name":"Price Chopper Wristbands","id":"136910"}},{"type":"Feature","geometry":{"type":"Point","coordinates":[55.3612885,25.252637999999997]},"properties":{"name":"Motiongate Dubai","place_name":"Motiongate Dubai","id":"417384"}},{"type":"Feature","geometry":{"type":"Point","coordinates":[-85.147825,41.120988]},"properties":{"name":"Classic Products Corp.","place_name":"Classic Products Corp.","id":"420736"}},{"type":"Feature","geometry":{"type":"Point","coordinates":[-101.84919,33.592206]},"properties":{"name":"Joyland Amusement Park","place_name":"Joyland Amusement Park","id":"4390"}},{"type":"Feature","geometry":{"type":"Point","coordinates":[13.40877,52.568294]},"properties":{"name":"Laserlight Showdesign","place_name":"Laserlight Showdesign","id":"358112"}},{"type":"Feature","geometry":{"type":"Point","coordinates":[-81.580557,28.233309]},"properties":{"name":"Fight or Flight Productions","place_name":"Fight or Flight Productions","id":"405334"}},{"type":"Feature","geometry":{"type":"Point","coordinates":[-94.309333,46.594586]},"properties":{"name":"Water Wars","place_name":"Water Wars","id":"35410"}},{"type":"Feature","geometry":{"type":"Point","coordinates":[-73.421389,40.752543]},"properties":{"name":"L.I. Adventureland, Inc.","place_name":"L.I. Adventureland, Inc.","id":"3280"}},{"type":"Feature","geometry":{"type":"Point","coordinates":[2.211116,48.918387]},"properties":{"name":"Spartrack-VR Azefir Group","place_name":"Spartrack-VR Azefir Group","id":"416806"}},{"type":"Feature","geometry":{"type":"Point","coordinates":[113.36518,22.93807]},"properties":{"name":"Guangzhou Xingjiangyuan Recreation Equipment Co., Ltd.","place_name":"Guangzhou Xingjiangyuan Recreation Equipment Co., Ltd.","id":"421864"}},{"type":"Feature","geometry":{"type":"Point","coordinates":[-99.088605,40.677624]},"properties":{"name":"Big Apple Fun Center","place_name":"Big Apple Fun Center","id":"355511"}},{"type":"Feature","geometry":{"type":"Point","coordinates":[-50.792294,-29.358976]},"properties":{"name":"Alpen Park","place_name":"Alpen Park","id":"342449"}},{"type":"Feature","geometry":{"type":"Point","coordinates":[-111.947945,33.449223]},"properties":{"name":"Phoenix Zoo","place_name":"Phoenix Zoo","id":"368572"}},{"type":"Feature","geometry":{"type":"Point","coordinates":[-71.548668,-33.008873]},"properties":{"name":"Inmobiliaria Mall Vina del Mar","place_name":"Inmobiliaria Mall Vina del Mar","id":"420482"}},{"type":"Feature","geometry":{"type":"Point","coordinates":[12.34,44.32]},"properties":{"name":"Mirabilandia Beach","place_name":"Mirabilandia Beach","id":"387238"}},{"type":"Feature","geometry":{"type":"Point","coordinates":[-116.55781,33.85797]},"properties":{"name":"Palm Springs Aerial Tramway","place_name":"Palm Springs Aerial Tramway","id":"72180"}},{"type":"Feature","geometry":{"type":"Point","coordinates":[-76.17327,43.04805]},"properties":{"name":"Dave & Buster's - Syracuse","place_name":"Dave & Buster's - Syracuse","id":"387600"}},{"type":"Feature","geometry":{"type":"Point","coordinates":[115.769412,-31.728122]},"properties":{"name":"Foamat Pty Ltd","place_name":"Foamat Pty Ltd","id":"406148"}},{"type":"Feature","geometry":{"type":"Point","coordinates":[-87.989504,42.049439]},"properties":{"name":"VITO Fryfilter, Inc.","place_name":"VITO Fryfilter, Inc.","id":"407621"}},{"type":"Feature","geometry":{"type":"Point","coordinates":[-81.384081,28.520562]},"properties":{"name":"The Nassal Company","place_name":"The Nassal Company","id":"59250"}},{"type":"Feature","geometry":{"type":"Point","coordinates":[-0.886178,41.606658]},"properties":{"name":"Neverland CC Puerto Venecia","place_name":"Neverland CC Puerto Venecia","id":"417596"}},{"type":"Feature","geometry":{"type":"Point","coordinates":[-89.09812,30.389101]},"properties":{"name":"City of Gulfport","place_name":"City of Gulfport","id":"415896"}},{"type":"Feature","geometry":{"type":"Point","coordinates":[-96.071029,41.219984]},"properties":{"name":"Conductix - Wampfler, Inc.","place_name":"Conductix - Wampfler, Inc.","id":"175730"}},{"type":"Feature","geometry":{"type":"Point","coordinates":[-95.56495,29.63412]},"properties":{"name":"Greentech Roofing","place_name":"Greentech Roofing","id":"420712"}},{"type":"Feature","geometry":{"type":"Point","coordinates":[-84.6437648,42.7261898]},"properties":{"name":"AIR CUBE ME","place_name":"AIR CUBE ME","id":"410793"}},{"type":"Feature","geometry":{"type":"Point","coordinates":[55.222924,25.122744]},"properties":{"name":"Fun City Oasis Centre","place_name":"Fun City Oasis Centre","id":"388422"}},{"type":"Feature","geometry":{"type":"Point","coordinates":[-121.87734,38.013198]},"properties":{"name":"Bishop-Wisecarver Corporation","place_name":"Bishop-Wisecarver Corporation","id":"418136"}},{"type":"Feature","geometry":{"type":"Point","coordinates":[-0.175075,51.414014]},"properties":{"name":"Rainbow Productions","place_name":"Rainbow Productions","id":"330300"}},{"type":"Feature","geometry":{"type":"Point","coordinates":[-80.922905,41.272869]},"properties":{"name":"GEP Productions, Inc.","place_name":"GEP Productions, Inc.","id":"169970"}},{"type":"Feature","geometry":{"type":"Point","coordinates":[-97.830337,30.031437]},"properties":{"name":"CPI Amusement Division","place_name":"CPI Amusement Division","id":"43460"}},{"type":"Feature","geometry":{"type":"Point","coordinates":[-75.77963,45.353822]},"properties":{"name":"Funhaven Prime Entertainment Inc.","place_name":"Funhaven Prime Entertainment Inc.","id":"366495"}},{"type":"Feature","geometry":{"type":"Point","coordinates":[-81.490717,28.45632]},"properties":{"name":"Rockwell Automation","place_name":"Rockwell Automation","id":"143080"}},{"type":"Feature","geometry":{"type":"Point","coordinates":[114.15861,22.27833]},"properties":{"name":"The Game Group","place_name":"The Game Group","id":"408180"}},{"type":"Feature","geometry":{"type":"Point","coordinates":[5.295029,51.948671]},"properties":{"name":"Famous Obstacles & Gameshows","place_name":"Famous Obstacles & Gameshows","id":"395217"}},{"type":"Feature","geometry":{"type":"Point","coordinates":[-75.61,40.81]},"properties":{"name":"Blue Mountain Resort","place_name":"Blue Mountain Resort","id":"347183"}},{"type":"Feature","geometry":{"type":"Point","coordinates":[172.678986,-43.560065]},"properties":{"name":"Coin Cascade Ltd. (Timezone - New Zealand)","place_name":"Coin Cascade Ltd. (Timezone - New Zealand)","id":"380976"}},{"type":"Feature","geometry":{"type":"Point","coordinates":[-73.664697,40.80861]},"properties":{"name":"Active Kidz Long Island, Inc.","place_name":"Active Kidz Long Island, Inc.","id":"353838"}},{"type":"Feature","geometry":{"type":"Point","coordinates":[-80.72403,35.371179]},"properties":{"name":"Dave & Buster's - Concord","place_name":"Dave & Buster's - Concord","id":"387532"}},{"type":"Feature","geometry":{"type":"Point","coordinates":[5.275914,51.651456]},"properties":{"name":"Wooddesign Amusement Rides B.V.","place_name":"Wooddesign Amusement Rides B.V.","id":"341853"}},{"type":"Feature","geometry":{"type":"Point","coordinates":[-96.820912,33.086982]},"properties":{"name":"KidZania USA","place_name":"KidZania USA","id":"401106"}},{"type":"Feature","geometry":{"type":"Point","coordinates":[114.1659415,22.247455]},"properties":{"name":"Cartoon Network","place_name":"Cartoon Network","id":"395576"}},{"type":"Feature","geometry":{"type":"Point","coordinates":[-88.115504,41.807006]},"properties":{"name":"Glory Global Solutions","place_name":"Glory Global Solutions","id":"393766"}},{"type":"Feature","geometry":{"type":"Point","coordinates":[-111.70412,40.32934]},"properties":{"name":"Coconut Cove, LLC","place_name":"Coconut Cove, LLC","id":"405853"}},{"type":"Feature","geometry":{"type":"Point","coordinates":[-76.464226,39.369419]},"properties":{"name":"iFLY Indoor Skydiving - White Marsh","place_name":"iFLY Indoor Skydiving - White Marsh","id":"409131"}},{"type":"Feature","geometry":{"type":"Point","coordinates":[-70.877174,-53.133673]},"properties":{"name":"Peterland Punta Arenas","place_name":"Peterland Punta Arenas","id":"403798"}},{"type":"Feature","geometry":{"type":"Point","coordinates":[-73.652022,45.629125]},"properties":{"name":"Show Canada Industries Inc.","place_name":"Show Canada Industries Inc.","id":"393421"}},{"type":"Feature","geometry":{"type":"Point","coordinates":[55.43333,25.35]},"properties":{"name":"Magic Planet - Sharjah City Centre, UAE","place_name":"Magic Planet - Sharjah City Centre, UAE","id":"387878"}},{"type":"Feature","geometry":{"type":"Point","coordinates":[-1.34058535343779,53.7077932449452]},"properties":{"name":"Gold Key Leisure Group Ltd","place_name":"Gold Key Leisure Group Ltd","id":"378188"}},{"type":"Feature","geometry":{"type":"Point","coordinates":[-78.82,42.99]},"properties":{"name":"LASERTRON, Inc.","place_name":"LASERTRON, Inc.","id":"61030"}},{"type":"Feature","geometry":{"type":"Point","coordinates":[153.35085,-28.0572]},"properties":{"name":"Leisure and Amusement Services","place_name":"Leisure and Amusement Services","id":"339477"}},{"type":"Feature","geometry":{"type":"Point","coordinates":[3.145439,51.317976]},"properties":{"name":"Sea Life Blankenberge","place_name":"Sea Life Blankenberge","id":"348334"}},{"type":"Feature","geometry":{"type":"Point","coordinates":[-96.471656,32.895759]},"properties":{"name":"Bounce 'N' More, LLC","place_name":"Bounce 'N' More, LLC","id":"378048"}},{"type":"Feature","geometry":{"type":"Point","coordinates":[-81.53541,28.330555]},"properties":{"name":"New Vue Solutions LLC","place_name":"New Vue Solutions LLC","id":"400262"}},{"type":"Feature","geometry":{"type":"Point","coordinates":[-4.242761,55.856415]},"properties":{"name":"VR Simulators","place_name":"VR Simulators","id":"419240"}},{"type":"Feature","geometry":{"type":"Point","coordinates":[120.15,30.26667]},"properties":{"name":"Lefunland Recreation Equipment Co. Ltd.","place_name":"Lefunland Recreation Equipment Co. Ltd.","id":"372745"}},{"type":"Feature","geometry":{"type":"Point","coordinates":[-76.8333,-12]},"properties":{"name":"Happyland Pro","place_name":"Happyland Pro","id":"397133"}},{"type":"Feature","geometry":{"type":"Point","coordinates":[-81.222648,28.599918]},"properties":{"name":"Creadis INC.","place_name":"Creadis INC.","id":"421585"}},{"type":"Feature","geometry":{"type":"Point","coordinates":[-86.073012,39.908228]},"properties":{"name":"Dave & Buster's - Indianapolis","place_name":"Dave & Buster's - Indianapolis","id":"387516"}},{"type":"Feature","geometry":{"type":"Point","coordinates":[-98.488968,29.426198]},"properties":{"name":"Buckhorn Saloon & Museum","place_name":"Buckhorn Saloon & Museum","id":"367639"}},{"type":"Feature","geometry":{"type":"Point","coordinates":[-77.103718,39.049862]},"properties":{"name":"ZavaZone","place_name":"ZavaZone","id":"404197"}},{"type":"Feature","geometry":{"type":"Point","coordinates":[113.35,22.53333]},"properties":{"name":"Zhongshan Rufeng Amusement Equipment Co. Ltd.","place_name":"Zhongshan Rufeng Amusement Equipment Co. Ltd.","id":"421505"}},{"type":"Feature","geometry":{"type":"Point","coordinates":[-82.498189,40.122817]},"properties":{"name":"Lazy River At Granville","place_name":"Lazy River At Granville","id":"392809"}},{"type":"Feature","geometry":{"type":"Point","coordinates":[12.973434,48.815]},"properties":{"name":"Zierer Karussell- Und Spezialmaschinenbau GmbH & Co. KG","place_name":"Zierer Karussell- Und Spezialmaschinenbau GmbH & Co. KG","id":"3260"}},{"type":"Feature","geometry":{"type":"Point","coordinates":[-74.216492,40.889966]},"properties":{"name":"Woodland Park Range","place_name":"Woodland Park Range","id":"379780"}},{"type":"Feature","geometry":{"type":"Point","coordinates":[-81.032957,29.188104]},"properties":{"name":"Jennison Entertainment Technologies","place_name":"Jennison Entertainment Technologies","id":"314858"}}]}